     2.100          NAVIGATION                              RINEX VERSION / TYPE
fic2rin                                 08/24/2017 00:06:04 PGM / RUN BY / DATE
                                                            END OF HEADER
 7 17  8 23 20  0  0.0  .311906915158D-03 -.477484718431D-11  .000000000000D+00
     .580000000000D+02 -.424375000000D+02  .476091259683D-08  .279881381977D+01
    -.231154263020D-05  .110144608188D-01  .474601984024D-05  .515371948242D+04
     .331200000000D+06 -.763684511185D-07 -.863839785457D+00 -.137835741043D-06
     .961156854327D+00  .288031250000D+03 -.256819771823D+01 -.817105464294D-08
    -.366443835285D-09  .100000000000D+01  .196300000000D+04  .000000000000D+00
     .240000000000D+01  .000000000000D+00 -.111758708954D-07  .580000000000D+02
     .324006000000D+06  .400000000000D+01
 8 17  8 23 20  0  0.0 -.709379091859D-04 -.136424205266D-11  .000000000000D+00
     .930000000000D+02  .887187500000D+02  .443661337418D-08 -.154973110521D+00
     .457465648651D-05  .256388098933D-02  .690110027790D-05  .515368033981D+04
     .331200000000D+06 -.260770320892D-07  .119872695744D+01 -.428408384323D-07
     .967226578972D+00  .247031250000D+03 -.626521868945D+00 -.821498504424D-08
     .499663670140D-09  .100000000000D+01  .196300000000D+04  .000000000000D+00
     .340000000000D+01  .000000000000D+00  .558793544769D-08  .930000000000D+02
     .324006000000D+06  .400000000000D+01
 9 17  8 23 20  0  0.0  .430430751294D-03  .670752342558D-11  .000000000000D+00
     .610000000000D+02  .725312500000D+02  .485020203038D-08 -.487693955371D+00
     .373087823391D-05  .678425771184D-03  .784173607826D-05  .515356846428D+04
     .331200000000D+06 -.409781932831D-07 -.194278349186D+01  .577419996262D-07
     .953067053400D+00  .223375000000D+03  .186035448908D+01 -.825962976102D-08
     .404659712844D-09  .100000000000D+01  .196300000000D+04  .000000000000D+00
     .240000000000D+01  .000000000000D+00  .931322574615D-09  .610000000000D+02
     .324006000000D+06  .400000000000D+01
10 17  8 23 20  0  0.0  .454401597381D-04  .105728759081D-10  .000000000000D+00
     .700000000000D+02 -.691562500000D+02  .445661420730D-08  .135302303825D+01
    -.345334410667D-05  .269209872931D-02  .116527080536D-04  .515367939186D+04
     .331200000000D+06  .372529029846D-07 -.298182145558D+01  .279396772385D-07
     .960750129454D+00  .155500000000D+03 -.282095239167D+01 -.800497629654D-08
    -.226438003480D-09  .100000000000D+01  .196300000000D+04  .000000000000D+00
     .240000000000D+01  .000000000000D+00  .186264514923D-08  .700000000000D+02
     .324006000000D+06  .400000000000D+01
11 17  8 23 20  0  0.0 -.711067114025D-03 -.250111042988D-11  .000000000000D+00
     .990000000000D+02  .208125000000D+02  .630026243122D-08  .282593116856D+01
     .916421413422D-06  .170761902118D-01  .836327672005D-06  .515372459030D+04
     .331200000000D+06  .331550836563D-06  .185414975319D+01 -.670552253723D-07
     .901668345397D+00  .329343750000D+03  .168143423030D+01 -.897608817582D-08
     .814319633967D-10  .100000000000D+01  .196300000000D+04  .000000000000D+00
     .340000000000D+01  .000000000000D+00 -.121071934700D-07  .990000000000D+02
     .324006000000D+06  .400000000000D+01
12 17  8 23 20  0  0.0  .375085975975D-03 -.125055521494D-11  .000000000000D+00
     .830000000000D+02 -.528125000000D+01  .349264548270D-08  .218216801130D+01
    -.284984707832D-06  .655633432325D-02  .133030116558D-04  .515373635864D+04
     .331200000000D+06 -.353902578354D-07  .222016052340D+00 -.150874257088D-06
     .989059531191D+00  .135187500000D+03  .914674776996D+00 -.749531220984D-08
    -.181793286706D-09  .100000000000D+01  .196300000000D+04  .000000000000D+00
     .240000000000D+01  .000000000000D+00 -.125728547573D-07  .830000000000D+02
     .324006000000D+06  .400000000000D+01
13 17  8 23 20  0  0.0 -.901585444808D-04 -.682121026330D-12  .000000000000D+00
     .940000000000D+02  .667500000000D+02  .452054544172D-08 -.230239325085D+01
     .340491533279D-05  .350401445758D-02  .758096575737D-05  .515369143867D+04
     .331200000000D+06  .119209289551D-06 -.181517436934D+01  .372529029846D-07
     .968955350228D+00  .239531250000D+03  .177457167931D+01 -.805283543292D-08
     .366800993019D-09  .100000000000D+01  .196300000000D+04  .000000000000D+00
     .240000000000D+01  .000000000000D+00 -.111758708954D-07  .940000000000D+02
     .324006000000D+06  .400000000000D+01
14 17  8 23 20  0  0.0 -.816662795842D-04 -.113686837722D-11  .000000000000D+00
     .690000000000D+02  .624062500000D+02  .473376860903D-08 -.983803913142D+00
     .325031578541D-05  .935316260438D-02  .751018524170D-05  .515368394279D+04
     .331200000000D+06 -.204890966415D-07 -.185524180691D+01  .189989805222D-06
     .961508475465D+00  .237218750000D+03 -.194883932171D+01 -.829891711178D-08
     .331442377334D-09  .100000000000D+01  .196300000000D+04  .000000000000D+00
     .240000000000D+01  .000000000000D+00 -.977888703346D-08  .690000000000D+02
     .324006000000D+06  .400000000000D+01
15 17  8 23 20  0  0.0 -.355030409992D-03 -.454747350886D-12  .000000000000D+00
     .630000000000D+02  .663437500000D+02  .528093425782D-08 -.151881339807D+01
     .341795384884D-05  .947812816594D-02  .870600342751D-05  .515359757614D+04
     .331200000000D+06  .173225998878D-06 -.200660600093D+01 -.143423676491D-06
     .928722621939D+00  .194312500000D+03  .592882818189D+00 -.836534845034D-08
     .496806408267D-09  .100000000000D+01  .196300000000D+04  .000000000000D+00
     .240000000000D+01  .000000000000D+00 -.107102096081D-07  .630000000000D+02
     .324006000000D+06  .400000000000D+01
16 17  8 23 20  0  0.0  .368328765035D-04  .113686837722D-12  .000000000000D+00
     .100000000000D+03 -.134375000000D+01  .351978947050D-08  .225613743867D+00
     .670552253723D-07  .927880324889D-02  .122860074043D-04  .515375459290D+04
     .331200000000D+06  .949949026108D-07  .240874065555D+00  .152736902237D-06
     .989522695444D+00  .158687500000D+03  .462241076733D+00 -.764210403859D-08
    -.122147945095D-09  .100000000000D+01  .196300000000D+04  .000000000000D+00
     .240000000000D+01  .000000000000D+00 -.107102096081D-07  .100000000000D+03
     .324006000000D+06  .400000000000D+01
17 17  8 23 20  0  0.0 -.161627307534D-03  .238742359215D-11  .000000000000D+00
     .340000000000D+02  .956875000000D+02  .433982362822D-08 -.666995134613D+00
     .514090061188D-05  .117634630296D-01  .670365989208D-05  .515367445183D+04
     .331200000000D+06 -.707805156708D-07  .125750098888D+01  .180676579475D-06
     .980469033385D+00  .267187500000D+03 -.184583987379D+01 -.827677333226D-08
     .583952895411D-09  .100000000000D+01  .196300000000D+04  .000000000000D+00
     .240000000000D+01  .000000000000D+00 -.111758708954D-07  .340000000000D+02
     .324006000000D+06  .400000000000D+01
18 17  8 23 20  0  0.0  .627809204161D-03  .102318153949D-11  .000000000000D+00
     .860000000000D+02 -.799375000000D+02  .532307887046D-08  .795816757282D+00
    -.410154461861D-05  .181271715555D-01  .117700546980D-04  .515363336563D+04
     .331200000000D+06 -.271946191788D-06 -.302711024672D+01 -.372529029846D-07
     .926376565085D+00  .142250000000D+03 -.178529186985D+01 -.872143471133D-08
    -.329299430929D-09  .100000000000D+01  .196300000000D+04  .000000000000D+00
     .240000000000D+01  .000000000000D+00 -.111758708954D-07  .860000000000D+02
     .324006000000D+06  .400000000000D+01
19 17  8 23 20  0  0.0 -.489698722959D-03  .181898940355D-11  .000000000000D+00
     .930000000000D+02  .919687500000D+02  .431053669401D-08  .233152343740D+01
     .463426113129D-05  .101320213871D-01  .602379441261D-05  .515367637253D+04
     .331200000000D+06  .521540641785D-07  .130514657762D+01 -.167638063431D-06
     .977767813668D+00  .272312500000D+03  .105490366138D+01 -.798997567170D-08
     .553237330270D-09  .100000000000D+01  .196300000000D+04  .000000000000D+00
     .240000000000D+01  .000000000000D+00 -.153668224812D-07  .930000000000D+02
     .324006000000D+06  .400000000000D+01
20 17  8 23 20  0  0.0  .484244432300D-03  .125055521494D-11  .000000000000D+00
     .780000000000D+02 -.816250000000D+02  .515057168484D-08 -.162170892029D+01
    -.414438545704D-05  .446349929553D-02  .116061419249D-04  .515373307037D+04
     .331200000000D+06  .372529029846D-08 -.307829462845D+01  .100582838058D-06
     .927760260299D+00  .136937500000D+03  .164518477340D+01 -.832070373357D-08
    -.305369862738D-09  .100000000000D+01  .196300000000D+04  .000000000000D+00
     .240000000000D+01  .000000000000D+00 -.838190317154D-08  .780000000000D+02
     .324006000000D+06  .400000000000D+01
21 17  8 23 20  0  0.0 -.484956428409D-03  .284217094304D-11  .000000000000D+00
     .370000000000D+02 -.473750000000D+02  .546487049093D-08  .169495537207D+01
    -.296160578728D-05  .239644626854D-01  .229105353355D-05  .515361836052D+04
     .331200000000D+06  .128522515297D-06  .221622536739D+01 -.573694705963D-06
     .940603326373D+00  .327812500000D+03 -.164731823753D+01 -.868286167604D-08
    -.914323799542D-10  .100000000000D+01  .196300000000D+04  .000000000000D+00
     .240000000000D+01  .000000000000D+00 -.977888703346D-08  .370000000000D+02
     .324006000000D+06  .400000000000D+01
22 17  8 23 20  0  0.0 -.979108735919D-04 -.126192389871D-10  .000000000000D+00
     .170000000000D+02 -.583125000000D+02  .516450083648D-08 -.129545344042D+01
    -.301934778690D-05  .734319526237D-02  .111944973469D-04  .515375754166D+04
     .331200000000D+06 -.949949026108D-07 -.302741068474D+01  .210478901863D-06
     .924453067730D+00  .143843750000D+03 -.168478913302D+01 -.836034824206D-08
    -.216794744657D-09  .100000000000D+01  .196300000000D+04  .000000000000D+00
     .240000000000D+01  .000000000000D+00 -.176951289177D-07  .170000000000D+02
     .324006000000D+06  .400000000000D+01
